STARLINK-3543           
1 51716U 22016C   25105.92108751 -.00003122  00000+0 -17822-3 0  9999
2 51716  53.2176   0.5327 0000810 129.0498 231.0567 15.08823761173944
STARLINK-3445           
1 51717U 22016D   25105.92573961  .00001608  00000+0  11908-3 0  9993
2 51717  53.2191   0.5937 0001510 111.9616 248.1537 15.08844177173949
STARLINK-3546           
1 51718U 22016E   25105.96893462 -.00000440  00000+0 -95558-5 0  9999
2 51718  53.2187   0.3153 0001514  80.7856 279.3308 15.08851861175072
STARLINK-3540           
1 51719U 22016F   25105.91742727  .00001489  00000+0  11165-3 0  9994
2 51719  53.2178   0.6231 0001327  88.8499 271.2645 15.08832626173944
STARLINK-3526           
1 51720U 22016G   25105.96252820  .00004233  00000+0  28386-3 0  9994
2 51720  53.2184   0.3147 0001290  93.2280 266.8859 15.08845672173945
STARLINK-3524           
1 51721U 22016H   25105.97357255  .00004996  00000+0  33169-3 0  9995
2 51721  53.2169   0.3056 0001497  88.4490 271.6673 15.08849427173957
STARLINK-3535           
1 51722U 22016J   25105.95789125  .00005717  00000+0  37683-3 0  9996
2 51722  53.2173   0.3636 0001357  86.7411 273.3737 15.08855719173946
STARLINK-3529           
1 51724U 22016L   25105.95053467  .00004126  00000+0  27716-3 0  9990
2 51724  53.2160   0.3918 0001035  66.4201 293.6900 15.08841092173948
STARLINK-3522           
1 51725U 22016M   25105.96157761  .00002128  00000+0  15173-3 0  9998
2 51725  53.2197   0.3456 0001500  79.4672 280.6489 15.08841967173948
STARLINK-3527           
1 51726U 22016N   25105.92569397  .00003494  00000+0  23742-3 0  9995
2 51726  53.2170 350.5093 0001258  92.4227 267.6909 15.08848479174081
STARLINK-3532           
1 51727U 22016P   25105.95421638  .00005836  00000+0  38438-3 0  9994
2 51727  53.2165   0.3808 0001541  92.8260 267.2908 15.08848470173946
STARLINK-3448           
1 51728U 22016Q   25103.96333872  .44442156  12480-4  22729-2 0  9999
2 51728  53.2015 322.9108 0004579 325.2700 173.5365 16.42714041175430
STARLINK-3523           
1 51729U 22016R   25105.92939504  .00009759  00000+0  63063-3 0  9999
2 51729  53.2167 350.4947 0001625  96.0466 264.0711 15.08827440174087
STARLINK-3514           
1 51731U 22016T   25105.92201383  .00006309  00000+0  41403-3 0  9991
2 51731  53.2172 350.5281 0001488  99.1582 260.9579 15.08849276174086
STARLINK-3518           
1 51732U 22016U   25105.97351113  .00015595  00000+0  99435-3 0  9999
2 51732  53.2174 350.2939 0001181 108.5094 251.6027 15.08891017175232
STARLINK-3525           
1 51733U 22016V   25105.91561812  .00001137  00000+0  89513-4 0  9997
2 51733  53.2182 350.5653 0001357  90.9739 269.1409 15.08832318174082
STARLINK-3450           
1 51734U 22016W   25105.96250380  .00010961  00000+0  70543-3 0  9995
2 51734  53.2178 350.3444 0001574  80.7350 279.3820 15.08855508174087
STARLINK-3517           
1 51735U 22016X   25105.96985582  .00001591  00000+0  11803-3 0  9998
2 51735  53.2177 350.3112 0001352  91.0092 269.1055 15.08838921174099
STARLINK-3447           
1 51736U 22016Y   25105.96346126  .00005200  00000+0  34453-3 0  9991
2 51736  53.2177 350.4272 0001463  88.2835 271.8325 15.08845177174084
STARLINK-3509           
1 51737U 22016Z   25105.96617337  .00005405  00000+0  35739-3 0  9992
2 51737  53.2179 350.3290 0001257 104.7704 255.3428 15.08845461174083
STARLINK-3515           
1 51738U 22016AA  25105.94777832  .00002601  00000+0  18147-3 0  9997
2 51738  53.2166 350.4096 0001297  82.1276 277.9863 15.08837356174089
STARLINK-3516           
1 51739U 22016AB  25105.95881465  .00004428  00000+0  29606-3 0  9998
2 51739  53.2182 350.3599 0001407 103.6373 256.4776 15.08844302174089
STARLINK-3500           
1 51740U 22016AC  25105.94042176  .00002971  00000+0  20468-3 0  9995
2 51740  53.2172 350.4423 0001546  77.1544 282.9620 15.08838341174084
STARLINK-3520           
1 51741U 22016AD  25105.95241258  .00005251  00000+0  34767-3 0  9990
2 51741  53.2168 350.3970 0001401  97.4326 262.6826 15.08849014174081
STARLINK-3521           
1 51742U 22016AE  25105.95515922  .00002091  00000+0  14943-3 0  9996
2 51742  53.2192 350.5670 0001462 102.7392 257.3764 15.08841640174087
STARLINK-3512           
1 51743U 22016AF  25105.95604542  .00001284  00000+0  98739-4 0  9993
2 51743  53.2187 340.2975 0001389  89.3099 270.8052 15.08842794174225
STARLINK-3452           
1 51744U 22016AG  25105.93305940  .00005504  00000+0  36355-3 0  9996
2 51744  53.2169 350.5052 0001540  84.5846 275.5322 15.08847750174085
STARLINK-3449           
1 51745U 22016AH  25105.94409709  .00004154  00000+0  27890-3 0  9990
2 51745  53.2166 350.4252 0001438  91.9628 268.1529 15.08846894174085
STARLINK-3502           
1 51746U 22016AJ  25105.96069665 -.00000808  00000+0 -32700-4 0  9997
2 51746  53.2192 340.3653 0001411 101.6952 258.4199 15.08842346174227
STARLINK-3446           
1 51747U 22016AK  25105.93769753  .00003543  00000+0  24059-3 0  9994
2 51747  53.2166 350.5048 0001614  84.4035 275.7141 15.08844188174084
STARLINK-3501           
1 51748U 22016AL  25105.95237701  .00000534  00000+0  51624-4 0  9996
2 51748  53.2174 340.3915 0001126 100.2454 259.8665 15.08837758174229
STARLINK-3451           
1 51749U 22016AM  25105.91468370  .00003536  00000+0  24014-3 0  9998
2 51749  53.2175 350.7420 0001347  86.2924 273.8223 15.08837177174071
STARLINK-3505           
1 51750U 22016AN  25105.94597479  .00000559  00000+0  53231-4 0  9992
2 51750  53.2183 340.4282 0001382  84.7627 275.3522 15.08834820174224
STARLINK-3506           
1 51751U 22016AP  25105.95702581  .00014323  00000+0  91584-3 0  9992
2 51751  53.2167 340.3795 0001082 101.9814 258.1299 15.08853310174227
STARLINK-3511           
1 51752U 22016AQ  25105.93493874  .00003112  00000+0  21357-3 0  9998
2 51752  53.2175 340.4005 0001450  90.1284 269.9874 15.08835630175349
STARLINK-3507           
1 51753U 22016AR  25105.94965392  .00003106  00000+0  21315-3 0  9996
2 51753  53.2173 340.4108 0001134  87.0512 273.0610 15.08841585174226
STARLINK-3457           
1 51754U 22016AS  25105.91186644  .00012487  00000+0  80100-3 0  9998
2 51754  53.2158 340.3290 0001551  88.4848 271.6322 15.08852747174227
STARLINK-3460           
1 51755U 22016AT  25105.93766074  .00000736  00000+0  64363-4 0  9990
2 51755  53.2184 340.4557 0001490  86.0920 274.0243 15.08831298174228
STARLINK-3513           
1 51756U 22016AU  25105.90821640  .00004752  00000+0  31637-3 0  9998
2 51756  53.2172 340.5891 0001600  80.7346 279.3827 15.08846732174229
STARLINK-3459           
1 51757U 22016AV  25105.90549220  .00003934  00000+0  26503-3 0  9997
2 51757  53.2165 340.6098 0001419  86.8995 273.2159 15.08848845174225
STARLINK-3458           
1 51758U 22016AW  25105.89717343  .00000778  00000+0  66976-4 0  9991
2 51758  53.2186 340.5906 0001378  89.7772 270.3378 15.08837547175369
STARLINK-3456           
1 51759U 22016AX  25105.90085490 -.00000467  00000+0 -11241-4 0  9997
2 51759  53.2172 340.6202 0001105  82.2864 277.8253 15.08832666175364
STARLINK-3622           
1 51768U 22017A   25105.93121248  .00000641  00000+0  58364-4 0  9992
2 51768  53.2174  10.4835 0001389  83.2957 276.8193 15.08844392174560
STARLINK-3621           
1 51769U 22017B   25106.05634203  .00001137  00000+0  89496-4 0  9998
2 51769  53.2179   9.9216 0001261  81.7577 278.3558 15.08836194174598
STARLINK-3612           
1 51770U 22017C   25105.92754276  .00015864  00000+0  10118-2 0  9993
2 51770  53.2173  10.4999 0001317  86.9976 273.1167 15.08867952173135
STARLINK-3614           
1 51771U 22017D   25106.05265082 -.00002102  00000+0 -11399-3 0  9997
2 51771  53.2192   9.9283 0001260  83.2927 276.8209 15.08848484174596
STARLINK-3623           
1 51772U 22017E   25106.04529714  .00000783  00000+0  67309-4 0  9996
2 51772  53.2183   9.9706 0001494  74.8011 285.3147 15.08841372174647
STARLINK-3624           
1 51773U 22017F   25106.04993648 -.00000220  00000+0  42876-5 0  9998
2 51773  53.2179   9.9216 0001500 116.7925 243.3220 15.08828691174608
STARLINK-3629           
1 51774U 22017G   25105.90545804  .00002107  00000+0  15044-3 0  9990
2 51774  53.2180  10.5967 0001130  88.8766 271.2356 15.08834005174586
STARLINK-3620           
1 51775U 22017H   25106.04897486  .00002462  00000+0  17266-3 0  9995
2 51775  53.2179   9.9558 0001309  81.2063 278.9077 15.08846740174592
STARLINK-3608           
1 51776U 22017J   25105.90177427  .00007839  00000+0  51001-3 0  9994
2 51776  53.2175  10.6160 0001025  79.9770 280.1338 15.08843790173081
STARLINK-3625           
1 51777U 22017K   25105.90640943  .00002140  00000+0  15250-3 0  9999
2 51777  53.2178  10.5661 0000939  73.8421 286.2674 15.08839252174583
STARLINK-3615           
1 51778U 22017L   25105.97628234  .00001769  00000+0  12921-3 0  9994
2 51778  53.2174   0.1539 0001343  94.8630 265.2515 15.08840450173081
STARLINK-3611           
1 51779U 22017M   25105.90276715 -.00009568  00000+0 -58437-3 0  9990
2 51779  53.2188  10.6630 0001240  92.0811 268.0323 15.08810931174576
STARLINK-3617           
1 51780U 22017N   25105.95329909 -.00001931  00000+0 -10332-3 0  9999
2 51780  53.2181  10.3743 0001384  97.8944 262.2205 15.08827478172940
STARLINK-3580           
1 51781U 22017P   25106.02320916 -.00000019  00000+0  16897-4 0  9996
2 51781  53.2176  10.0321 0001630 116.8703 243.2456 15.08850475174608
STARLINK-3616           
1 51782U 22017Q   25105.99287648  .00002038  00000+0  14611-3 0  9999
2 51782  53.2173  20.3642 0001342  87.4565 272.6580 15.08838205174448
STARLINK-3628           
1 51783U 22017R   25105.96161712 -.00000998  00000+0 -44589-4 0  9993
2 51783  53.2189  10.3956 0001454  94.1920 265.9238 15.08850833172946
STARLINK-3632           
1 51784U 22017S   25105.90821752  .00001056  00000+0  84430-4 0  9998
2 51784  53.2177  20.5892 0001528  84.5834 275.5333 15.08833450174441
